$$SOE
2460721.500000000, A.D. 2025-Feb-15 00:00:00.0000, 1.053091440809421E+08, 3.128984987344986E+08, 4.377432797692510E+07,
2460728.500000000, A.D. 2025-Feb-22 00:00:00.0000, 9.372954224746959E+07, 3.164690973963389E+08, 4.425333527346164E+07,
2460735.500000000, A.D. 2025-Mar-01 00:00:00.0000, 8.202674860529502E+07, 3.196238858755457E+08, 4.467415135176155E+07,
2460742.500000000, A.D. 2025-Mar-08 00:00:00.0000, 7.021613170086202E+07, 3.223586478713098E+08, 4.503621233849522E+07,
2460749.500000000, A.D. 2025-Mar-15 00:00:00.0000, 5.831321166960165E+07, 3.246697349524276E+08, 4.533903370911719E+07,
2460756.500000000, A.D. 2025-Mar-22 00:00:00.0000, 4.633363593284129E+07, 3.265540724983341E+08, 4.558221127455559E+07,
2460763.500000000, A.D. 2025-Mar-29 00:00:00.0000, 3.429315603203766E+07, 3.280091624839805E+08, 4.576542173092633E+07,
2460770.500000000, A.D. 2025-Apr-05 00:00:00.0000, 2.220760597132204E+07, 3.290330862471866E+08, 4.588842299901123E+07,
2460777.500000000, A.D. 2025-Apr-12 00:00:00.0000, 1.009288018937544E+07, 3.296245073323963E+08, 4.595105453627016E+07,
2460784.500000000, A.D. 2025-Apr-19 00:00:00.0000, -2.035088984165904E+06, 3.297826735208307E+08, 4.595323756481700E+07,
2460791.500000000, A.D. 2025-Apr-26 00:00:00.0000, -1.416035407320619E+07, 3.295074178405882E+08, 4.589497517322116E+07,
2460798.500000000, A.D. 2025-May-03 00:00:00.0000, -2.626697524309193E+07, 3.287991585753371E+08, 4.577635228314310E+07,
2460805.500000000, A.D. 2025-May-10 00:00:00.0000, -3.833904305934287E+07, 3.276588982818012E+08, 4.559753547913212E+07,
2460812.500000000, A.D. 2025-May-17 00:00:00.0000, -5.036070113673797E+07, 3.260882217784734E+08, 4.535877269546798E+07,
2460819.500000000, A.D. 2025-May-24 00:00:00.0000, -6.231616846171334E+07, 3.240892930564110E+08, 4.506039274062343E+07,
2460826.500000000, A.D. 2025-May-31 00:00:00.0000, -7.418976092863461E+07, 3.216648514307659E+08, 4.470280464792506E+07,
2460833.500000000, A.D. 2025-Jun-07 00:00:00.0000, -8.596591245110419E+07, 3.188182081507299E+08, 4.428649699004540E+07,
2460840.500000000, A.D. 2025-Jun-14 00:00:00.0000, -9.762919796962601E+07, 3.155532428183048E+08, 4.381203732217796E+07,
2460847.500000000, A.D. 2025-Jun-21 00:00:00.0000, -1.091643570928929E+08, 3.118743963508928E+08, 4.328007137545539E+07,
2460854.500000000, A.D. 2025-Jun-28 00:00:00.0000, -1.205563152123193E+08, 3.077866622614346E+08, 4.269132186037895E+07,
2460861.500000000, A.D. 2025-Jul-05 00:00:00.0000, -1.317902035738743E+08, 3.032955784402370E+08, 4.204658720037206E+07,
2460868.500000000, A.D. 2025-Jul-12 00:00:00.0000, -1.428513794585030E+08, 2.984072186561362E+08, 4.134674024190465E+07,
2460875.500000000, A.D. 2025-Jul-19 00:00:00.0000, -1.537254462456675E+08, 2.931281832209322E+08, 4.059272687959100E+07,
2460882.500000000, A.D. 2025-Jul-26 00:00:00.0000, -1.643982731175881E+08, 2.874655887826198E+08, 3.978556457583040E+07,
2460889.500000000, A.D. 2025-Aug-02 00:00:00.0000, -1.748560143078838E+08, 2.814270572938092E+08, 3.892634077455050E+07,
2460896.500000000, A.D. 2025-Aug-09 00:00:00.0000, -1.850851278416736E+08, 2.750207041670925E+08, 3.801621120969056E+07,
2460903.500000000, A.D. 2025-Aug-16 00:00:00.0000, -1.950723936622007E+08, 2.682551255816756E+08, 3.705639810033292E+07,
2460910.500000000, A.D. 2025-Aug-23 00:00:00.0000, -2.048049308250406E+08, 2.611393849860361E+08, 3.604818821127971E+07,
2460917.500000000, A.D. 2025-Aug-30 00:00:00.0000, -2.142702134072616E+08, 2.536829995394341E+08, 3.499293081176713E+07,
2460924.500000000, A.D. 2025-Sep-06 00:00:00.0000, -2.234560865309936E+08, 2.458959275242235E+08, 3.389203574917977E+07,
2460931.500000000, A.D. 2025-Sep-13 00:00:00.0000, -2.323507841548783E+08, 2.377885542841715E+08, 3.274697159342690E+07,
2460938.500000000, A.D. 2025-Sep-20 00:00:00.0000, -2.409429453346226E+08, 2.293716750774812E+08, 3.155926342157803E+07,
2460945.500000000, A.D. 2025-Sep-27 00:00:00.0000, -2.492216278754146E+08, 2.206564779818765E+08, 3.033049040418297E+07,
2460952.500000000, A.D. 2025-Oct-04 00:00:00.0000, -2.571763213832357E+08, 2.116545274296287E+08, 2.906228342737703E+07,
2460959.500000000, A.D. 2025-Oct-11 00:00:00.0000, -2.647969600688273E+08, 2.023777474698124E+08, 2.775632271169239E+07,
2460966.500000000, A.D. 2025-Oct-18 00:00:00.0000, -2.720739349962845E+08, 1.928384045124361E+08, 2.641433538191179E+07,
2460973.500000000, A.D. 2025-Oct-25 00:00:00.0000, -2.789981056196846E+08, 1.830490895877789E+08, 2.503809297972927E+07,
2460980.500000000, A.D. 2025-Nov-01 00:00:00.0000, -2.855608105634788E+08, 1.730227001607002E+08, 2.362940892231163E+07,
2460987.500000000, A.D. 2025-Nov-08 00:00:00.0000, -2.917538776158671E+08, 1.627724215014993E+08, 2.219013590750269E+07,
2460994.500000000, A.D. 2025-Nov-15 00:00:00.0000, -2.975696327908922E+08, 1.523117075954172E+08, 2.072216325326359E+07,
2461001.500000000, A.D. 2025-Nov-22 00:00:00.0000, -3.030009080548710E+08, 1.416542618522038E+08, 1.922741415704887E+07,
2461008.500000000, A.D. 2025-Nov-29 00:00:00.0000, -3.080410478652707E+08, 1.308140187872845E+08, 1.770784298568878E+07,
2461015.500000000, A.D. 2025-Dec-06 00:00:00.0000, -3.126839167976968E+08, 1.198051265707338E+08, 1.616543279711794E+07,
2461022.500000000, A.D. 2025-Dec-13 00:00:00.0000, -3.169239078305839E+08, 1.086419271078544E+08, 1.460219278249359E+07,
2461029.500000000, A.D. 2025-Dec-20 00:00:00.0000, -3.207559477906230E+08, 9.733893470867757E+07, 1.302015539591965E+07,
2461036.500000000, A.D. 2025-Dec-27 00:00:00.0000, -3.241755010270748E+08, 8.591081596263841E+07, 1.142137348614604E+07,
2461043.500000000, A.D. 2026-Jan-03 00:00:00.0000, -3.271785727820295E+08, 7.437237022785355E+07, 9.807917517810281E+06,
2461050.500000000, A.D. 2026-Jan-10 00:00:00.0000, -3.297617121578256E+08, 6.273851008776576E+07, 8.181872820713818E+06,
2461057.500000000, A.D. 2026-Jan-17 00:00:00.0000, -3.319220144559468E+08, 5.102424171476309E+07, 6.545336842384297E+06,
2461064.500000000, A.D. 2026-Jan-24 00:00:00.0000, -3.336571228161528E+08, 3.924464519176418E+07, 4.900416402615348E+06,
2461071.500000000, A.D. 2026-Jan-31 00:00:00.0000, -3.349652291409126E+08, 2.741485481132518E+07, 3.249224951084264E+06,
2461078.500000000, A.D. 2026-Feb-07 00:00:00.0000, -3.358450742537012E+08, 1.555003932117302E+07, 1.593879821451984E+06,
2461085.500000000, A.D. 2026-Feb-14 00:00:00.0000, -3.362959470492048E+08, 3.665382126415934E+06, -6.350053891659132E+04,
2461092.500000000, A.D. 2026-Feb-21 00:00:00.0000, -3.363176822593868E+08, -8.223937949886179E+06, -1.720799348520531E+06,
2461099.500000000, A.D. 2026-Feb-28 00:00:00.0000, -3.359106579321042E+08, -2.010276417137045E+07, -3.375904083543825E+06,
2461106.500000000, A.D. 2026-Mar-07 00:00:00.0000, -3.350757946962273E+08, -3.195597958758039E+07, -5.026708849757208E+06,
2461113.500000000, A.D. 2026-Mar-14 00:00:00.0000, -3.338145540580009E+08, -4.376852723841231E+07, -6.671116977521617E+06,
2461120.500000000, A.D. 2026-Mar-21 00:00:00.0000, -3.321289339612411E+08, -5.552542993932040E+07, -8.307043763871320E+06,
2461127.500000000, A.D. 2026-Mar-28 00:00:00.0000, -3.300214636274353E+08, -6.721180859446681E+07, -9.932419089987483E+06,
2461134.500000000, A.D. 2026-Apr-04 00:00:00.0000, -3.274951982879314E+08, -7.881289998575412E+07, -1.154518993474684E+07,
2461141.500000000, A.D. 2026-Apr-11 00:00:00.0000, -3.245537135478383E+08, -9.031407438149668E+07, -1.314332283626546E+07,
2461148.500000000, A.D. 2026-Apr-18 00:00:00.0000, -3.212010992357494E+08, -1.017008529555120E+08, -1.472480631340782E+07,
2461155.500000000, A.D. 2026-Apr-25 00:00:00.0000, -3.174419527067068E+08, -1.129589249889683E+08, -1.628765324685862E+07,
2461162.500000000, A.D. 2026-May-02 00:00:00.0000, -3.132813715839908E+08, -1.240741648741269E+08, -1.782990322214273E+07,
2461169.500000000, A.D. 2026-May-09 00:00:00.0000, -3.087249458347546E+08, -1.350326489756480E+08, -1.934962484942142E+07,
2461176.500000000, A.D. 2026-May-16 00:00:00.0000, -3.037787488222903E+08, -1.458206721988952E+08, -2.084491808203268E+07,
2461183.500000000, A.D. 2026-May-23 00:00:00.0000, -2.984493273021646E+08, -1.564247632290789E+08, -2.231391645376848E+07,
2461190.500000000, A.D. 2026-May-30 00:00:00.0000, -2.927436924567381E+08, -1.668316981083367E+08, -2.375478901696528E+07,
2461197.500000000, A.D. 2026-Jun-06 00:00:00.0000, -2.866693123016936E+08, -1.770285154146153E+08, -2.516574221923257E+07,
2461204.500000000, A.D. 2026-Jun-13 00:00:00.0000, -2.802341018186745E+08, -1.870025328359030E+08, -2.654502203881918E+07,
2461211.500000000, A.D. 2026-Jun-20 00:00:00.0000, -2.734464113347057E+08, -1.967413622036071E+08, -2.789091609312156E+07,
2461218.500000000, A.D. 2026-Jun-27 00:00:00.0000, -2.663150148627473E+08, -2.062329233126450E+08, -2.920175559120581E+07,
2461225.500000000, A.D. 2026-Jul-04 00:00:00.0000, -2.588490984174708E+08, -2.154654572913531E+08, -3.047591719232719E+07,
2461232.500000000, A.D. 2026-Jul-11 00:00:00.0000, -2.510582480662727E+08, -2.244275396419226E+08, -3.171182480297749E+07,
2461239.500000000, A.D. 2026-Jul-18 00:00:00.0000, -2.429524376349874E+08, -2.331080929136742E+08, -3.290795131634302E+07,
2461246.500000000, A.D. 2026-Jul-25 00:00:00.0000, -2.345420160519848E+08, -2.414963989968031E+08, -3.406282029307818E+07,
2461253.500000000, A.D. 2026-Aug-01 00:00:00.0000, -2.258376942906953E+08, -2.495821110821981E+08, -3.517500759013447E+07,
2461260.500000000, A.D. 2026-Aug-08 00:00:00.0000, -2.168505317102465E+08, -2.573552653262707E+08, -3.624314296125251E+07,
2461267.500000000, A.D. 2026-Aug-15 00:00:00.0000, -2.075919214003392E+08, -2.648062917722225E+08, -3.726591163246876E+07,
2461274.500000000, A.D. 2026-Aug-22 00:00:00.0000, -1.980735753131621E+08, -2.719260233024418E+08, -3.824205568408515E+07,
2461281.500000000, A.D. 2026-Aug-29 00:00:00.0000, -1.883075114884485E+08, -2.787057039867203E+08, -3.917037514083795E+07,
2461288.500000000, A.D. 2026-Sep-05 00:00:00.0000, -1.783060412518431E+08, -2.851369996885079E+08, -4.004972919960552E+07,
$$EOE